[ {"OBJECT_NAME": "0 STARLINK-1260", "OBJECT_ID": "45404", "TLE_LINE1": "1 45404U 20019AW  26202.43581597  .00028937  00000-0  68088-3 0  9995", "TLE_LINE2": "2 45404  53.1531 222.7164 0001947 338.4672  21.6252 15.41760198350520"}, {"OBJECT_NAME": "0 STARLINK-1263", "OBJECT_ID": "45405", "TLE_LINE1": "1 45405U 20019AX  26202.55534458  .00034499  00000-0  89573-3 0  9995", "TLE_LINE2": "2 45405  53.1537 224.3418 0003709 338.9863  21.0989 15.38671779350514"}, {"OBJECT_NAME": "0 STARLINK-1265", "OBJECT_ID": "45406", "TLE_LINE1": "1 45406U 20019AY  26202.35209310  .00038861  00000-0  89733-3 0  9995", "TLE_LINE2": "2 45406  53.1527 222.9755 0002925  11.7238 348.3835 15.42177699350515"}, {"OBJECT_NAME": "0 STARLINK-1275", "OBJECT_ID": "45407", "TLE_LINE1": "1 45407U 20019AZ  25125.70562885  .22790939  12086-4  37666-2 0  9990", "TLE_LINE2": "2 45407  53.0249 340.0960 0010277 246.6287 231.1966 16.32444524284837"}, {"OBJECT_NAME": "0 STARLINK-1278", "OBJECT_ID": "45408", "TLE_LINE1": "1 45408U 20019BA  26202.24634333  .00072601  00000-0  38972-3 0  9991", "TLE_LINE2": "2 45408  53.0361 192.5855 0003052  59.6500 300.4822 15.79626621350902"}, {"OBJECT_NAME": "0 STARLINK-1282", "OBJECT_ID": "45409", "TLE_LINE1": "1 45409U 20019BB  25116.35196707  .05013351  12267-4  52428-3 0  9991", "TLE_LINE2": "2 45409  53.0240  66.5173 0001961 247.1120 256.2963 16.36946173282786"}, {"OBJECT_NAME": "0 STARLINK-1285", "OBJECT_ID": "45410", "TLE_LINE1": "1 45410U 20019BC  22128.80342096  .13490714  12086-4  28408-2 0  9997", "TLE_LINE2": "2 45410  53.0208 151.9444 0001490 253.7862 284.1555 16.30163480120846"}, {"OBJECT_NAME": "0 STARLINK-1293", "OBJECT_ID": "45411", "TLE_LINE1": "1 45411U 20019BD  25094.72331580  .34538342  12423-4  32455-2 0  9995", "TLE_LINE2": "2 45411  53.0155 187.6081 0007920 339.1092 147.7547 16.37754237279202"}, {"OBJECT_NAME": "0 STARLINK-1296", "OBJECT_ID": "45412", "TLE_LINE1": "1 45412U 20019BE  26202.45156097  .00030792  00000-0  71060-3 0  9995", "TLE_LINE2": "2 45412  53.1534 222.1421 0002036 354.0922   6.0060 15.42310376350539"}, {"OBJECT_NAME": "0 STARLINK-1298", "OBJECT_ID": "45413", "TLE_LINE1": "1 45413U 20019BF  26088.06199933  .05321526  12203-4  72346-3 0  9994", "TLE_LINE2": "2 45413  53.0202 312.4958 0006230 265.4997  94.5335 16.34465515334230"}, {"OBJECT_NAME": "0 STARLINK-1309", "OBJECT_ID": "45414", "TLE_LINE1": "1 45414U 20019BG  26202.37008178  .00066302  00000-0  38839-3 0  9997", "TLE_LINE2": "2 45414  53.0574 186.4790 0003582  63.6770 296.4618 15.77717417350984"}, {"OBJECT_NAME": "0 STARLINK-1316", "OBJECT_ID": "45415", "TLE_LINE1": "1 45415U 20019BH  26202.28228727  .00033325  00000-0  75961-3 0  9998", "TLE_LINE2": "2 45415  53.1521 222.7785 0001864 333.5457  26.5453 15.42640871350539"}, {"OBJECT_NAME": "0 STARLINK-1318", "OBJECT_ID": "45416", "TLE_LINE1": "1 45416U 20019BJ  26060.58072376  .12842981  12525-4  33563-3 0  9991", "TLE_LINE2": "2 45416  53.0199  78.8814 0002168 268.4541  91.6260 16.45864176329963"}, {"OBJECT_NAME": "0 STARLINK-1286", "OBJECT_ID": "45417", "TLE_LINE1": "1 45417U 20019BK  26202.37362012  .00054101  00000-0  46127-3 0  9993", "TLE_LINE2": "2 45417  53.0425 200.1848 0006944  39.4717 320.6804 15.68999172351086"}, {"OBJECT_NAME": "0 STARLINK-1299", "OBJECT_ID": "45418", "TLE_LINE1": "1 45418U 20019BL  23235.70024997  .11290169  12185-4  36517-2 0  9991", "TLE_LINE2": "2 45418  52.9657 341.3086 0017465 330.7563 139.1225 16.24941513189864"}, {"OBJECT_NAME": "0 STARLINK-1308", "OBJECT_ID": "45419", "TLE_LINE1": "1 45419U 20019BM  26202.23685761  .00040447  00000-0  33548-3 0  9990", "TLE_LINE2": "2 45419  53.0433 219.8560 0002944 136.5762 223.5487 15.69819562350543"}, {"OBJECT_NAME": "0 STARLINK-1329", "OBJECT_ID": "45531", "TLE_LINE1": "1 45531U 20025A   26202.12307379  .00077256  00000-0  42018-3 0  9996", "TLE_LINE2": "2 45531  53.0388 141.4317 0003456  50.6141 309.5185 15.79311131346414"}, {"OBJECT_NAME": "0 STARLINK-1338", "OBJECT_ID": "45532", "TLE_LINE1": "1 45532U 20025B   26202.12580808  .00061535  00000-0  39273-3 0  9999", "TLE_LINE2": "2 45532  53.0403 149.2886 0002709  93.6762 266.4567 15.75806944346306"}, {"OBJECT_NAME": "0 STARLINK-1339", "OBJECT_ID": "45533", "TLE_LINE1": "1 45533U 20025C   22254.69612148  .24681771  12376-4  27679-2 0  9993", "TLE_LINE2": "2 45533  53.0245 344.2717 0008111 328.9087 181.5764 16.36185557133531"}, {"OBJECT_NAME": "0 STARLINK-1341", "OBJECT_ID": "45534", "TLE_LINE1": "1 45534U 20025D   25055.43787074  .04292105  12053-4  89690-3 0  9990", "TLE_LINE2": "2 45534  53.0256 312.9274 0007722 209.9078 324.9146 16.30148902268138"}, {"OBJECT_NAME": "0 STARLINK-1350", "OBJECT_ID": "45535", "TLE_LINE1": "1 45535U 20025E   26202.01672213  .00033407  00000-0  81381-3 0  9996", "TLE_LINE2": "2 45535  53.0693 125.3080 0001914  98.9829 261.1392 15.40635773346670"}, {"OBJECT_NAME": "0 STARLINK-1352", "OBJECT_ID": "45536", "TLE_LINE1": "1 45536U 20025F   25177.60031249  .06062667  12348-4  33992-3 0  9993", "TLE_LINE2": "2 45536  53.0379 117.3426 0005072 160.4656  16.9707 16.42051704286723"}, {"OBJECT_NAME": "0 STARLINK-1353", "OBJECT_ID": "45537", "TLE_LINE1": "1 45537U 20025G   23052.24776911  .22290404  12035-4  39887-2 0  9997", "TLE_LINE2": "2 45537  52.9444 316.5842 0008981 225.8577 227.9971 16.31694892158241"}, {"OBJECT_NAME": "0 STARLINK-1362", "OBJECT_ID": "45538", "TLE_LINE1": "1 45538U 20025H   26202.36829758  .00033897  00000-0  81756-3 0  9994", "TLE_LINE2": "2 45538  53.1550 195.2327 0005240  11.0736 349.0383 15.40922555345712"}, {"OBJECT_NAME": "0 STARLINK-1367", "OBJECT_ID": "45539", "TLE_LINE1": "1 45539U 20025J   22227.12669390  .26429626  12541-4  16009-2 0  9998", "TLE_LINE2": "2 45539  53.0199 317.0181 0008427   7.3679  67.7368 16.41341338131454"}, {"OBJECT_NAME": "0 STARLINK-1368", "OBJECT_ID": "45540", "TLE_LINE1": "1 45540U 20025K   26202.37607153  .00029577  00000-0  70897-3 0  9995", "TLE_LINE2": "2 45540  53.1554 195.5022 0004525  11.4258 348.6849 15.41182567345705"}, {"OBJECT_NAME": "0 STARLINK-1369", "OBJECT_ID": "45541", "TLE_LINE1": "1 45541U 20025L   25095.61838644  .13145206  12523-4  57855-3 0  9991", "TLE_LINE2": "2 45541  53.0382 139.9484 0004271 341.4962 158.5750 16.43361102274093"}, {"OBJECT_NAME": "0 STARLINK-1371", "OBJECT_ID": "45542", "TLE_LINE1": "1 45542U 20025M   26202.13258914  .00050612  00000-0  37214-3 0  9998", "TLE_LINE2": "2 45542  53.0418 160.0729 0002722  81.8696 278.2630 15.72599339346159"}, {"OBJECT_NAME": "0 STARLINK-1372", "OBJECT_ID": "45543", "TLE_LINE1": "1 45543U 20025N   26202.25726585  .00031917  00000-0  75264-3 0  9990", "TLE_LINE2": "2 45543  53.1545 195.4230 0004685   3.5989 356.5050 15.41636718344790"}, {"OBJECT_NAME": "0 STARLINK-1373", "OBJECT_ID": "45544", "TLE_LINE1": "1 45544U 20025P   26202.15235972  .00057760  00000-0  39159-3 0  9992", "TLE_LINE2": "2 45544  53.0408 154.4977 0003131  87.9925 272.1452 15.74440623346236"}, {"OBJECT_NAME": "0 STARLINK-1374", "OBJECT_ID": "45545", "TLE_LINE1": "1 45545U 20025Q   25053.32747775  .12637540  12492-4  36935-3 0  9998", "TLE_LINE2": "2 45545  53.0216 323.3699 0006709 267.1070 195.7690 16.44852345267882"}, {"OBJECT_NAME": "0 STARLINK-1375", "OBJECT_ID": "45546", "TLE_LINE1": "1 45546U 20025R   25071.57005896  .14475558  12580-4  42090-3 0  9995", "TLE_LINE2": "2 45546  53.0300 254.9532 0007781 310.6835 157.9926 16.44748846270141"}, {"OBJECT_NAME": "0 STARLINK-1377", "OBJECT_ID": "45547", "TLE_LINE1": "1 45547U 20025S   24252.68243785  .23606485  12278-4  39847-2 0  9993", "TLE_LINE2": "2 45547  53.0274 319.4864 0008025 338.5560 160.5969 16.32311541243178"}, {"OBJECT_NAME": "0 STARLINK-1378", "OBJECT_ID": "45548", "TLE_LINE1": "1 45548U 20025T   25056.43432917  .07610854  12212-4  74662-3 0  9997", "TLE_LINE2": "2 45548  53.0240 312.3938 0007118 223.0942 306.1564 16.37409185268229"}, {"OBJECT_NAME": "0 STARLINK-1379", "OBJECT_ID": "45549", "TLE_LINE1": "1 45549U 20025U   22046.97729285  .25275355  12288-4  23059-2 0  9999", "TLE_LINE2": "2 45549  53.0256 236.9132 0005365 256.4102 103.7237 16.38082968101663"}, {"OBJECT_NAME": "0 STARLINK-1390", "OBJECT_ID": "45550", "TLE_LINE1": "1 45550U 20025V   25080.20672096  .05069048  12546-4  19771-3 0  9997", "TLE_LINE2": "2 45550  53.0231 201.7313 0007779 338.1459  90.1412 16.43430149271782"}, {"OBJECT_NAME": "0 STARLINK-1294", "OBJECT_ID": "45551", "TLE_LINE1": "1 45551U 20025W   26062.09590104  .12534528  12493-4  33071-3 0  9993", "TLE_LINE2": "2 45551  53.0150   7.4359 0003065 236.3782 123.6975 16.45728679325906"}, {"OBJECT_NAME": "0 STARLINK-1322", "OBJECT_ID": "45552", "TLE_LINE1": "1 45552U 20025X   22233.95013504  .26626971  12446-4  24055-2 0  9997", "TLE_LINE2": "2 45552  53.0195  41.2400 0015871 302.4141  57.6925 16.37691147130906"}, {"OBJECT_NAME": "0 STARLINK-1323", "OBJECT_ID": "45553", "TLE_LINE1": "1 45553U 20025Y   25292.46479120  .11125131  12480-4  35769-3 0  9991", "TLE_LINE2": "2 45553  53.0174 290.9761 0003576 255.1081 104.9572 16.44780239303762"}, {"OBJECT_NAME": "0 STARLINK-1325", "OBJECT_ID": "45554", "TLE_LINE1": "1 45554U 20025Z   26029.80521777  .12622787  12349-4  91666-3 0  9997", "TLE_LINE2": "2 45554  53.0367 158.8826 0007659 265.2745  94.7427 16.39928328320958"}, {"OBJECT_NAME": "0 STARLINK-1327", "OBJECT_ID": "45555", "TLE_LINE1": "1 45555U 20025AA  26202.49763696  .00080018  00000-0  49116-3 0  9996", "TLE_LINE2": "2 45555  53.0376 129.7557 0002262 117.2395 242.8855 15.76591992346603"}, {"OBJECT_NAME": "0 STARLINK-1334", "OBJECT_ID": "45556", "TLE_LINE1": "1 45556U 20025AB  25157.45099881  .12014585  12664-4  13670-3 0  9997", "TLE_LINE2": "2 45556  53.0193 166.9080 0007217 284.2939 245.5959 16.49739738284248"}, {"OBJECT_NAME": "0 STARLINK-1336", "OBJECT_ID": "45557", "TLE_LINE1": "1 45557U 20025AC  25298.36900527  .12948368  12496-4  21372-3 0  9998", "TLE_LINE2": "2 45557  53.0229 266.6517 0007703 233.2600 126.7743 16.47598051305919"}]